{"type": "FeatureCollection", "features": [{"type": "Feature", "id": "MW-024", "properties": {"watershed_id": "MW-024", "name": "Chengam-Kuppanatham Upper Sub-basin", "block_name": "Chengam Block", "basin": "Palar Basin", "district": "Tiruvannamalai District"}, "geometry": {"type": "Polygon", "coordinates": [[[79.00154, 12.36923], [79.00469, 12.36801], [79.0065, 12.36553], [79.00958, 12.36339], [79.01255, 12.36303], [79.01571, 12.36214], [79.0304, 12.36816], [79.04292, 12.37678], [79.05592, 12.37993], [79.07092, 12.38628], [79.08707, 12.3889], [79.08829, 12.39414], [79.09046, 12.39814], [79.0916, 12.40344], [79.08985, 12.40845], [79.09155, 12.41352], [79.08502, 12.42498], [79.07567, 12.43388], [79.07132, 12.44765], [79.06259, 12.45904], [79.05651, 12.46959], [79.04609, 12.47256], [79.03494, 12.46633], [79.02373, 12.47139], [79.01188, 12.47092], [79.00113, 12.46782], [78.99351, 12.46193], [78.99011, 12.44915], [78.98215, 12.44349], [78.97254, 12.4401], [78.96647, 12.43235], [78.97338, 12.42078], [78.9796, 12.40818], [78.98282, 12.38967], [78.99566, 12.38277], [79.00154, 12.36923]]]}}, {"type": "Feature", "id": "MW-017", "properties": {"watershed_id": "MW-017", "name": "Polur-Kalasapakkam Cheyyar Catchment", "block_name": "Polur Block", "basin": "Palar Basin", "district": "Tiruvannamalai District"}, "geometry": {"type": "Polygon", "coordinates": [[[79.09155, 12.41352], [79.10972, 12.41573], [79.12798, 12.42461], [79.14154, 12.43422], [79.15648, 12.44484], [79.17342, 12.44861], [79.1714, 12.45753], [79.16994, 12.46746], [79.16728, 12.47521], [79.16108, 12.48161], [79.15719, 12.4898], [79.14172, 12.48672], [79.12668, 12.5012], [79.11099, 12.49647], [79.09224, 12.49422], [79.07625, 12.49815], [79.07352, 12.49231], [79.06708, 12.48663], [79.06639, 12.48023], [79.061, 12.47537], [79.05651, 12.46959], [79.06259, 12.45904], [79.07132, 12.44765], [79.07567, 12.43388], [79.08502, 12.42498], [79.09155, 12.41352]]]}}, {"type": "Feature", "id": "MW-031", "properties": {"watershed_id": "MW-031", "name": "Vandavasi-Chetput Dry Tank Zone", "block_name": "Vandavasi Block", "basin": "Palar Basin", "district": "Tiruvannamalai District"}, "geometry": {"type": "Polygon", "coordinates": [[[79.08707, 12.3889], [79.08962, 12.38399], [79.09607, 12.38006], [79.0957, 12.37276], [79.09994, 12.3695], [79.10469, 12.36541], [79.1245, 12.36638], [79.141, 12.37073], [79.16258, 12.36097], [79.1785, 12.36453], [79.19737, 12.35828], [79.19121, 12.37583], [79.18761, 12.39033], [79.19548, 12.40807], [79.18553, 12.42725], [79.18325, 12.44302], [79.18144, 12.44432], [79.17886, 12.44486], [79.17764, 12.44687], [79.17571, 12.44781], [79.17342, 12.44861], [79.15648, 12.44484], [79.14154, 12.43422], [79.12798, 12.42461], [79.10972, 12.41573], [79.09155, 12.41352], [79.08985, 12.40845], [79.0916, 12.40344], [79.09046, 12.39814], [79.08829, 12.39414], [79.08707, 12.3889]]]}}, {"type": "Feature", "id": "MW-006", "properties": {"watershed_id": "MW-006", "name": "Tiruvannamalai-Thurinjalar Sub-basin", "block_name": "Tiruvannamalai Block", "basin": "Palar Basin", "district": "Tiruvannamalai District"}, "geometry": {"type": "Polygon", "coordinates": [[[78.93083, 12.31267], [78.93427, 12.29925], [78.94986, 12.29054], [78.94894, 12.27343], [78.9619, 12.26758], [78.96783, 12.25348], [78.98239, 12.25507], [78.99306, 12.27152], [79.00851, 12.27484], [79.02452, 12.27387], [79.03538, 12.2835], [79.03572, 12.3014], [79.02942, 12.31441], [79.02366, 12.33294], [79.02257, 12.34786], [79.01571, 12.36214], [79.01255, 12.36303], [79.00958, 12.36339], [79.0065, 12.36553], [79.00469, 12.36801], [79.00154, 12.36923], [78.98997, 12.35459], [78.96648, 12.35139], [78.9555, 12.33759], [78.94543, 12.32205], [78.93083, 12.31267]]]}}, {"type": "Feature", "id": "MW-012", "properties": {"watershed_id": "MW-012", "name": "Cheyyar-Anakkavur Cascade Eri Zone", "block_name": "Cheyyar Block", "basin": "Palar Basin", "district": "Tiruvannamalai District"}, "geometry": {"type": "Polygon", "coordinates": [[[79.19737, 12.35828], [79.19898, 12.35718], [79.1992, 12.3551], [79.20068, 12.35383], [79.20255, 12.35253], [79.20356, 12.35093], [79.21557, 12.34941], [79.22674, 12.35199], [79.23808, 12.3414], [79.24908, 12.34619], [79.26079, 12.34177], [79.26404, 12.34457], [79.26704, 12.34716], [79.26648, 12.35248], [79.27039, 12.35419], [79.27207, 12.3573], [79.27513, 12.36822], [79.2731, 12.37955], [79.27776, 12.39083], [79.27978, 12.40373], [79.27746, 12.41597], [79.27037, 12.42678], [79.25245, 12.42727], [79.24244, 12.43699], [79.2344, 12.44843], [79.22545, 12.45705], [79.21746, 12.45243], [79.20877, 12.45038], [79.19998, 12.44829], [79.19108, 12.4472], [79.18325, 12.44302], [79.18553, 12.42725], [79.19548, 12.40807], [79.18761, 12.39033], [79.19121, 12.37583], [79.19737, 12.35828]]]}}, {"type": "Feature", "id": "MW-028", "properties": {"watershed_id": "MW-028", "name": "Javadhu Hills-Pudupattu Escarpment", "block_name": "Jawadhu Hills Block", "basin": "Palar Basin", "district": "Tiruvannamalai District"}, "geometry": {"type": "Polygon", "coordinates": [[[78.88075, 12.35722], [78.88155, 12.35148], [78.88063, 12.34558], [78.88427, 12.34149], [78.88605, 12.33552], [78.88641, 12.33043], [78.89564, 12.32712], [78.90308, 12.32142], [78.91392, 12.32293], [78.92127, 12.31671], [78.93083, 12.31267], [78.94543, 12.32205], [78.9555, 12.33759], [78.96648, 12.35139], [78.98997, 12.35459], [79.00154, 12.36923], [78.99566, 12.38277], [78.98282, 12.38967], [78.9796, 12.40818], [78.97338, 12.42078], [78.96647, 12.43235], [78.96181, 12.43138], [78.95632, 12.43397], [78.95218, 12.43033], [78.947, 12.43336], [78.94184, 12.43281], [78.93102, 12.42756], [78.92215, 12.42246], [78.91124, 12.41822], [78.90513, 12.40568], [78.89519, 12.39997], [78.89018, 12.39222], [78.89329, 12.38191], [78.89081, 12.37338], [78.88574, 12.36518], [78.88075, 12.35722]]]}}, {"type": "Feature", "id": "MW-029", "properties": {"watershed_id": "MW-029", "name": "Arani-Kamandalar Mid Sub-basin", "block_name": "Arani Block", "basin": "Palar Basin", "district": "Tiruvannamalai District"}, "geometry": {"type": "Polygon", "coordinates": [[[79.03538, 12.2835], [79.03803, 12.2817], [79.0418, 12.28201], [79.04435, 12.27946], [79.04801, 12.27949], [79.05079, 12.27789], [79.06215, 12.28178], [79.07097, 12.2838], [79.08397, 12.28907], [79.08961, 12.29896], [79.10052, 12.30276], [79.10437, 12.3146], [79.10749, 12.32576], [79.10258, 12.3397], [79.10564, 12.35273], [79.10469, 12.36541], [79.09994, 12.3695], [79.0957, 12.37276], [79.09607, 12.38006], [79.08962, 12.38399], [79.08707, 12.3889], [79.07092, 12.38628], [79.05592, 12.37993], [79.04292, 12.37678], [79.0304, 12.36816], [79.01571, 12.36214], [79.02257, 12.34786], [79.02366, 12.33294], [79.02942, 12.31441], [79.03572, 12.3014], [79.03538, 12.2835]]]}}, {"type": "Feature", "id": "MW-030", "properties": {"watershed_id": "MW-030", "name": "Thandrampet-Sathanur Reservoir Rim", "block_name": "Thandrampet Block", "basin": "Palar Basin", "district": "Tiruvannamalai District"}, "geometry": {"type": "Polygon", "coordinates": [[[78.86774, 12.2549], [78.87891, 12.24683], [78.89332, 12.24586], [78.90337, 12.2344], [78.91686, 12.22858], [78.92822, 12.22154], [78.93465, 12.2265], [78.9405, 12.22948], [78.95063, 12.23031], [78.95616, 12.23254], [78.96269, 12.23806], [78.96456, 12.24057], [78.96361, 12.24452], [78.9656, 12.24723], [78.96643, 12.25055], [78.96783, 12.25348], [78.9619, 12.26758], [78.94894, 12.27343], [78.94986, 12.29054], [78.93427, 12.29925], [78.93083, 12.31267], [78.92127, 12.31671], [78.91392, 12.32293], [78.90308, 12.32142], [78.89564, 12.32712], [78.88641, 12.33043], [78.88422, 12.32803], [78.8811, 12.32668], [78.87928, 12.32352], [78.8783, 12.32033], [78.8761, 12.31832], [78.87651, 12.30515], [78.87182, 12.29344], [78.87299, 12.28043], [78.87084, 12.26838], [78.86774, 12.2549]]]}}, {"type": "Feature", "id": "MW-061", "properties": {"watershed_id": "MW-061", "name": "Kilpennathur-Gingee Upper Plain", "block_name": "Kilpennathur Block", "basin": "Palar Basin", "district": "Tiruvannamalai District"}, "geometry": {"type": "Polygon", "coordinates": [[[79.08025, 12.19932], [79.09384, 12.1994], [79.1066, 12.20895], [79.12026, 12.20904], [79.13549, 12.21107], [79.15093, 12.21048], [79.15365, 12.21591], [79.16095, 12.21858], [79.16164, 12.22442], [79.1653, 12.23068], [79.16973, 12.23432], [79.16557, 12.24255], [79.16853, 12.25238], [79.164, 12.26015], [79.15934, 12.26783], [79.15844, 12.27573], [79.1473, 12.27999], [79.13607, 12.28895], [79.12087, 12.28886], [79.11168, 12.2963], [79.10052, 12.30276], [79.08961, 12.29896], [79.08397, 12.28907], [79.07097, 12.2838], [79.06215, 12.28178], [79.05079, 12.27789], [79.05599, 12.26168], [79.05805, 12.24255], [79.06594, 12.23191], [79.07808, 12.21687], [79.08025, 12.19932]]]}}, {"type": "Feature", "id": "MW-062", "properties": {"watershed_id": "MW-062", "name": "Mangalam-Annamalai Foothill Zone", "block_name": "Thurinjapuram Block", "basin": "Palar Basin", "district": "Tiruvannamalai District"}, "geometry": {"type": "Polygon", "coordinates": [[[79.10052, 12.30276], [79.11168, 12.2963], [79.12087, 12.28886], [79.13607, 12.28895], [79.1473, 12.27999], [79.15844, 12.27573], [79.16935, 12.29044], [79.17655, 12.30688], [79.1928, 12.31646], [79.1911, 12.33662], [79.20356, 12.35093], [79.20255, 12.35253], [79.20068, 12.35383], [79.1992, 12.3551], [79.19898, 12.35718], [79.19737, 12.35828], [79.1785, 12.36453], [79.16258, 12.36097], [79.141, 12.37073], [79.1245, 12.36638], [79.10469, 12.36541], [79.10564, 12.35273], [79.10258, 12.3397], [79.10749, 12.32576], [79.10437, 12.3146], [79.10052, 12.30276]]]}}, {"type": "Feature", "id": "MW-063", "properties": {"watershed_id": "MW-063", "name": "Vembakkam-Palar Southern Bank", "block_name": "Vembakkam Block", "basin": "Palar Basin", "district": "Tiruvannamalai District"}, "geometry": {"type": "Polygon", "coordinates": [[[79.15844, 12.27573], [79.15934, 12.26783], [79.164, 12.26015], [79.16853, 12.25238], [79.16557, 12.24255], [79.16973, 12.23432], [79.17991, 12.23111], [79.18902, 12.23542], [79.19868, 12.23389], [79.20923, 12.23049], [79.21927, 12.22975], [79.23008, 12.23535], [79.24106, 12.24218], [79.24684, 12.25545], [79.25636, 12.26292], [79.26558, 12.27013], [79.26807, 12.2796], [79.27229, 12.29082], [79.27043, 12.29911], [79.26934, 12.30947], [79.27072, 12.3197], [79.27007, 12.32434], [79.2647, 12.32772], [79.26274, 12.33272], [79.26168, 12.33694], [79.26079, 12.34177], [79.24908, 12.34619], [79.23808, 12.3414], [79.22674, 12.35199], [79.21557, 12.34941], [79.20356, 12.35093], [79.1911, 12.33662], [79.1928, 12.31646], [79.17655, 12.30688], [79.16935, 12.29044], [79.15844, 12.27573]]]}}, {"type": "Feature", "id": "MW-064", "properties": {"watershed_id": "MW-064", "name": "Pudupalayam-Cheyyar Southern Plain", "block_name": "Pudupalayam Block", "basin": "Palar Basin", "district": "Tiruvannamalai District"}, "geometry": {"type": "Polygon", "coordinates": [[[78.9952, 12.18644], [79.011, 12.18392], [79.02626, 12.19151], [79.04656, 12.18468], [79.06085, 12.19329], [79.07625, 12.19391], [79.07699, 12.19514], [79.07839, 12.19568], [79.07853, 12.19743], [79.07981, 12.19809], [79.08025, 12.19932], [79.07808, 12.21687], [79.06594, 12.23191], [79.05805, 12.24255], [79.05599, 12.26168], [79.05079, 12.27789], [79.04801, 12.27949], [79.04435, 12.27946], [79.0418, 12.28201], [79.03803, 12.2817], [79.03538, 12.2835], [79.02452, 12.27387], [79.00851, 12.27484], [78.99306, 12.27152], [78.98239, 12.25507], [78.96783, 12.25348], [78.96643, 12.25055], [78.9656, 12.24723], [78.96361, 12.24452], [78.96456, 12.24057], [78.96269, 12.23806], [78.96844, 12.22605], [78.97004, 12.21546], [78.98427, 12.2074], [78.98847, 12.19536], [78.9952, 12.18644]]]}}, {"type": "Feature", "id": "MW-002", "properties": {"watershed_id": "MW-002", "name": "Pallikaranai Marsh South Catchment", "block_name": "St. Thomas Mount Block", "basin": "Chennai Basin", "district": "Chennai District"}, "geometry": {"type": "Polygon", "coordinates": [[[80.18079, 12.91177], [80.19422, 12.91752], [80.20875, 12.91424], [80.21913, 12.92433], [80.23375, 12.92679], [80.24764, 12.93349], [80.25041, 12.93669], [80.25317, 12.94082], [80.25126, 12.94537], [80.25511, 12.94901], [80.257, 12.9524], [80.25611, 12.95473], [80.25583, 12.95738], [80.25309, 12.95919], [80.2539, 12.96207], [80.25245, 12.96399], [80.23607, 12.95984], [80.21721, 12.97206], [80.20178, 12.97227], [80.18673, 12.97308], [80.16893, 12.96982], [80.16898, 12.96675], [80.16658, 12.96469], [80.16547, 12.96174], [80.16563, 12.95827], [80.16449, 12.95553], [80.1694, 12.9466], [80.17262, 12.93989], [80.17697, 12.93019], [80.17942, 12.92122], [80.18079, 12.91177]]]}}, {"type": "Feature", "id": "MW-003", "properties": {"watershed_id": "MW-003", "name": "Velachery-Adambakkam Urban Sub-basin", "block_name": "Velachery Zone", "basin": "Chennai Basin", "district": "Chennai District"}, "geometry": {"type": "Polygon", "coordinates": [[[80.16806, 12.97694], [80.16825, 12.97553], [80.1684, 12.97411], [80.16862, 12.97267], [80.16911, 12.97136], [80.16893, 12.96982], [80.18673, 12.97308], [80.20178, 12.97227], [80.21721, 12.97206], [80.23607, 12.95984], [80.25245, 12.96399], [80.25208, 12.97433], [80.25547, 12.98298], [80.25976, 12.99244], [80.25811, 13.00277], [80.26064, 13.01304], [80.25821, 13.01716], [80.25575, 13.02082], [80.25137, 13.02371], [80.24953, 13.02907], [80.24685, 13.03255], [80.23904, 13.02983], [80.23237, 13.03285], [80.22428, 13.03116], [80.21667, 13.03304], [80.20904, 13.03124], [80.1991, 13.02152], [80.19593, 13.00744], [80.18936, 12.99637], [80.17868, 12.98593], [80.16806, 12.97694]]]}}, {"type": "Feature", "id": "MW-008", "properties": {"watershed_id": "MW-008", "name": "Porur-Manapakkam Adyar Sub-basin", "block_name": "Valasaravakkam Zone", "basin": "Chennai Basin", "district": "Chennai District"}, "geometry": {"type": "Polygon", "coordinates": [[[80.13031, 13.01151], [80.13622, 13.00267], [80.14794, 13.00217], [80.15291, 12.9919], [80.16278, 12.98522], [80.16806, 12.97694], [80.17868, 12.98593], [80.18936, 12.99637], [80.19593, 13.00744], [80.1991, 13.02152], [80.20904, 13.03124], [80.20368, 13.04016], [80.19937, 13.04873], [80.19091, 13.05288], [80.18318, 13.05867], [80.17626, 13.06612], [80.17083, 13.06693], [80.16422, 13.06921], [80.15917, 13.0646], [80.15337, 13.06817], [80.14781, 13.06723], [80.14591, 13.05649], [80.14495, 13.04274], [80.13374, 13.03654], [80.13139, 13.02256], [80.13031, 13.01151]]]}}, {"type": "Feature", "id": "MW-009", "properties": {"watershed_id": "MW-009", "name": "Korattur-Ambattur Industrial Tank Zone", "block_name": "Ambattur Zone", "basin": "Chennai Basin", "district": "Chennai District"}, "geometry": {"type": "Polygon", "coordinates": [[[80.13669, 13.07772], [80.13927, 13.07633], [80.14182, 13.07459], [80.14356, 13.07166], [80.14514, 13.06856], [80.14781, 13.06723], [80.15337, 13.06817], [80.15917, 13.0646], [80.16422, 13.06921], [80.17083, 13.06693], [80.17626, 13.06612], [80.18249, 13.07469], [80.18512, 13.08744], [80.18956, 13.098], [80.19855, 13.10713], [80.20708, 13.11441], [80.19398, 13.11835], [80.18372, 13.1251], [80.16871, 13.12582], [80.1589, 13.13465], [80.14758, 13.13793], [80.1427, 13.12667], [80.14477, 13.11499], [80.14192, 13.10238], [80.14024, 13.08992], [80.13669, 13.07772]]]}}, {"type": "Feature", "id": "MW-013", "properties": {"watershed_id": "MW-013", "name": "Manali-Ennore Creek Estuarine", "block_name": "Manali Zone", "basin": "Chennai Basin", "district": "Chennai District"}, "geometry": {"type": "Polygon", "coordinates": [[[80.22486, 13.12171], [80.22923, 13.12148], [80.23224, 13.12005], [80.23663, 13.1187], [80.2396, 13.11581], [80.24337, 13.11554], [80.24997, 13.11926], [80.25241, 13.12755], [80.25963, 13.13119], [80.26466, 13.13529], [80.27026, 13.14089], [80.26764, 13.15157], [80.26935, 13.16173], [80.2643, 13.17271], [80.25403, 13.18053], [80.25366, 13.19211], [80.24395, 13.19047], [80.23476, 13.19253], [80.22692, 13.19215], [80.2177, 13.19472], [80.20877, 13.19751], [80.20789, 13.19742], [80.2072, 13.197], [80.20633, 13.19713], [80.20568, 13.1966], [80.20488, 13.19634], [80.2047, 13.19618], [80.20457, 13.196], [80.20427, 13.19603], [80.2041, 13.19577], [80.20391, 13.19566], [80.2035, 13.17982], [80.21139, 13.16628], [80.21105, 13.15035], [80.21677, 13.13617], [80.22486, 13.12171]]]}}, {"type": "Feature", "id": "MW-010", "properties": {"watershed_id": "MW-010", "name": "Red Hills-Puzhal Surplus Catchment", "block_name": "Puzhal Zone", "basin": "Chennai Basin", "district": "Chennai District"}, "geometry": {"type": "Polygon", "coordinates": [[[80.14712, 13.13885], [80.14722, 13.13868], [80.14728, 13.13844], [80.14747, 13.13831], [80.14745, 13.13808], [80.14758, 13.13793], [80.1589, 13.13465], [80.16871, 13.12582], [80.18372, 13.1251], [80.19398, 13.11835], [80.20708, 13.11441], [80.21049, 13.11708], [80.21407, 13.11855], [80.21723, 13.12], [80.22104, 13.12093], [80.22486, 13.12171], [80.21677, 13.13617], [80.21105, 13.15035], [80.21139, 13.16628], [80.2035, 13.17982], [80.20391, 13.19566], [80.20361, 13.1956], [80.20327, 13.19574], [80.20298, 13.19581], [80.2027, 13.19563], [80.2024, 13.19571], [80.19564, 13.19422], [80.18985, 13.19189], [80.18413, 13.18638], [80.17729, 13.18546], [80.17085, 13.184], [80.16729, 13.17504], [80.16462, 13.16486], [80.15394, 13.15854], [80.1511, 13.14789], [80.14712, 13.13885]]]}}, {"type": "Feature", "id": "MW-016", "properties": {"watershed_id": "MW-016", "name": "Cooum Mid-Anna Nagar Catchment", "block_name": "Anna Nagar Zone", "basin": "Chennai Basin", "district": "Chennai District"}, "geometry": {"type": "Polygon", "coordinates": [[[80.17626, 13.06612], [80.18318, 13.05867], [80.19091, 13.05288], [80.19937, 13.04873], [80.20368, 13.04016], [80.20904, 13.03124], [80.21667, 13.03304], [80.22428, 13.03116], [80.23237, 13.03285], [80.23904, 13.02983], [80.24685, 13.03255], [80.25161, 13.0412], [80.25534, 13.04922], [80.26035, 13.05716], [80.26114, 13.0674], [80.26285, 13.07689], [80.26049, 13.08556], [80.25075, 13.091], [80.24841, 13.09959], [80.24543, 13.10665], [80.24337, 13.11554], [80.2396, 13.11581], [80.23663, 13.1187], [80.23224, 13.12005], [80.22923, 13.12148], [80.22486, 13.12171], [80.22104, 13.12093], [80.21723, 13.12], [80.21407, 13.11855], [80.21049, 13.11708], [80.20708, 13.11441], [80.19855, 13.10713], [80.18956, 13.098], [80.18512, 13.08744], [80.18249, 13.07469], [80.17626, 13.06612]]]}}, {"type": "Feature", "id": "MW-011", "properties": {"watershed_id": "MW-011", "name": "Sholinganallur-Buckingham Canal Zone", "block_name": "Sholinganallur Zone", "basin": "Chennai Basin", "district": "Chennai District"}, "geometry": {"type": "Polygon", "coordinates": [[[80.19457, 12.88412], [80.19695, 12.88317], [80.19921, 12.88198], [80.20071, 12.88034], [80.20243, 12.87828], [80.20488, 12.87734], [80.20833, 12.87758], [80.21202, 12.87652], [80.21485, 12.87449], [80.2185, 12.87544], [80.22208, 12.87536], [80.22691, 12.88149], [80.23318, 12.88583], [80.24172, 12.89034], [80.24844, 12.89172], [80.25478, 12.89702], [80.25416, 12.90394], [80.25276, 12.91202], [80.24864, 12.9195], [80.25019, 12.92631], [80.24764, 12.93349], [80.23375, 12.92679], [80.21913, 12.92433], [80.20875, 12.91424], [80.19422, 12.91752], [80.18079, 12.91177], [80.18078, 12.91166], [80.18079, 12.91153], [80.18071, 12.91144], [80.18074, 12.91131], [80.18073, 12.91119], [80.18215, 12.90532], [80.18464, 12.89919], [80.188, 12.89533], [80.19269, 12.89043], [80.19457, 12.88412]]]}}, {"type": "Feature", "id": "MW-001", "properties": {"watershed_id": "MW-001", "name": "Kattankulathur-Potheri (SRM Catchment)", "block_name": "Kattankulathur Block", "basin": "Chennai Basin", "district": "Chengalpattu District"}, "geometry": {"type": "Polygon", "coordinates": [[[79.99497, 12.81371], [80.01145, 12.80126], [80.03, 12.79088], [80.05508, 12.79023], [80.07042, 12.77698], [80.08809, 12.76461], [80.09114, 12.77079], [80.09847, 12.77261], [80.10075, 12.77825], [80.10435, 12.78372], [80.10778, 12.78944], [80.09531, 12.80472], [80.07019, 12.81264], [80.0667, 12.83795], [80.04729, 12.84251], [80.03439, 12.8603], [80.02895, 12.85839], [80.02524, 12.85532], [80.02166, 12.85044], [80.01471, 12.85053], [80.01019, 12.84746], [80.00802, 12.84088], [80.00332, 12.83318], [80.00299, 12.82684], [79.99924, 12.81956], [79.99497, 12.81371]]]}}, {"type": "Feature", "id": "MW-007", "properties": {"watershed_id": "MW-007", "name": "Guduvancheri-Nandivaram Eri Zone", "block_name": "Kattankulathur Block", "basin": "Chennai Basin", "district": "Chengalpattu District"}, "geometry": {"type": "Polygon", "coordinates": [[[80.10778, 12.78944], [80.10907, 12.7901], [80.11014, 12.79106], [80.11099, 12.79217], [80.11229, 12.79259], [80.11329, 12.79335], [80.11531, 12.80163], [80.12329, 12.80691], [80.12095, 12.81612], [80.12737, 12.82366], [80.13249, 12.82952], [80.13201, 12.83591], [80.12837, 12.84256], [80.12748, 12.84801], [80.12217, 12.8536], [80.11928, 12.85976], [80.1129, 12.86546], [80.10229, 12.86624], [80.09633, 12.87177], [80.09078, 12.88128], [80.083, 12.88422], [80.07387, 12.88451], [80.06644, 12.8823], [80.05917, 12.87657], [80.05035, 12.87497], [80.04194, 12.87312], [80.04096, 12.86998], [80.03779, 12.86905], [80.03778, 12.86476], [80.03619, 12.86247], [80.03439, 12.8603], [80.04729, 12.84251], [80.0667, 12.83795], [80.07019, 12.81264], [80.09531, 12.80472], [80.10778, 12.78944]]]}}, {"type": "Feature", "id": "MW-014", "properties": {"watershed_id": "MW-014", "name": "Kelambakkam-Kovalam Backwater Basin", "block_name": "Thiruporur Block", "basin": "Chennai Basin", "district": "Chengalpattu District"}, "geometry": {"type": "Polygon", "coordinates": [[[80.11329, 12.79335], [80.1305, 12.78868], [80.14122, 12.76874], [80.15956, 12.76956], [80.1759, 12.75719], [80.19201, 12.75192], [80.1941, 12.75974], [80.19918, 12.76623], [80.20689, 12.77146], [80.20876, 12.77848], [80.2131, 12.78536], [80.20799, 12.79325], [80.20284, 12.80089], [80.19932, 12.80754], [80.19734, 12.81774], [80.19149, 12.82418], [80.1818, 12.82714], [80.17087, 12.82448], [80.1639, 12.83321], [80.15327, 12.83192], [80.14363, 12.83272], [80.14105, 12.83275], [80.13887, 12.83249], [80.13663, 12.831], [80.13476, 12.82965], [80.13249, 12.82952], [80.12737, 12.82366], [80.12095, 12.81612], [80.12329, 12.80691], [80.11531, 12.80163], [80.11329, 12.79335]]]}}, {"type": "Feature", "id": "MW-018", "properties": {"watershed_id": "MW-018", "name": "Thiruporur-OMR IT Corridor Catchment", "block_name": "Thiruporur Block", "basin": "Chennai Basin", "district": "Chengalpattu District"}, "geometry": {"type": "Polygon", "coordinates": [[[80.08024, 12.73129], [80.09627, 12.7228], [80.10896, 12.70959], [80.12062, 12.70172], [80.14007, 12.69959], [80.15467, 12.68876], [80.16139, 12.69096], [80.16683, 12.69425], [80.17126, 12.70033], [80.17682, 12.70392], [80.18293, 12.70656], [80.18418, 12.71401], [80.18777, 12.72228], [80.19359, 12.72781], [80.19448, 12.73523], [80.19505, 12.74359], [80.19467, 12.74528], [80.19385, 12.74667], [80.19266, 12.74857], [80.19242, 12.75031], [80.19201, 12.75192], [80.1759, 12.75719], [80.15956, 12.76956], [80.14122, 12.76874], [80.1305, 12.78868], [80.11329, 12.79335], [80.11229, 12.79259], [80.11099, 12.79217], [80.11014, 12.79106], [80.10907, 12.7901], [80.10778, 12.78944], [80.10435, 12.78372], [80.10075, 12.77825], [80.09847, 12.77261], [80.09114, 12.77079], [80.08809, 12.76461], [80.0877, 12.75794], [80.0862, 12.75126], [80.08613, 12.74459], [80.08235, 12.73795], [80.08024, 12.73129]]]}}, {"type": "Feature", "id": "MW-019", "properties": {"watershed_id": "MW-019", "name": "Singaperumal Koil-Marai Malai Nagar", "block_name": "Chengalpattu Block", "basin": "Palar Basin", "district": "Chengalpattu District"}, "geometry": {"type": "Polygon", "coordinates": [[[79.97617, 12.74565], [79.99434, 12.74409], [80.01216, 12.7292], [80.03093, 12.73658], [80.04542, 12.72056], [80.06574, 12.71722], [80.06791, 12.72112], [80.07004, 12.72378], [80.07446, 12.72548], [80.07731, 12.72837], [80.08024, 12.73129], [80.08235, 12.73795], [80.08613, 12.74459], [80.0862, 12.75126], [80.0877, 12.75794], [80.08809, 12.76461], [80.07042, 12.77698], [80.05508, 12.79023], [80.03, 12.79088], [80.01145, 12.80126], [79.99497, 12.81371], [79.99471, 12.81355], [79.99445, 12.81343], [79.99417, 12.81324], [79.99383, 12.81322], [79.99357, 12.81299], [79.98838, 12.80739], [79.98772, 12.79794], [79.98474, 12.7923], [79.9785, 12.78766], [79.97386, 12.7816], [79.97657, 12.775], [79.97426, 12.76616], [79.97256, 12.75949], [79.97381, 12.75312], [79.97617, 12.74565]]]}}, {"type": "Feature", "id": "MW-020", "properties": {"watershed_id": "MW-020", "name": "Chengalpattu-Kolavai Lake Sub-basin", "block_name": "Chengalpattu Block", "basin": "Palar Basin", "district": "Chengalpattu District"}, "geometry": {"type": "Polygon", "coordinates": [[[79.96758, 12.69747], [79.97448, 12.6922], [79.98341, 12.68673], [79.98733, 12.67935], [79.99514, 12.67458], [80.00443, 12.67127], [80.01354, 12.67574], [80.02291, 12.67245], [80.03499, 12.67407], [80.04351, 12.67737], [80.0521, 12.68095], [80.05259, 12.68117], [80.05298, 12.68149], [80.05338, 12.68176], [80.0538, 12.682], [80.05415, 12.68244], [80.05679, 12.68979], [80.05513, 12.69686], [80.06074, 12.70415], [80.06463, 12.71036], [80.06574, 12.71722], [80.04542, 12.72056], [80.03093, 12.73658], [80.01216, 12.7292], [79.99434, 12.74409], [79.97617, 12.74565], [79.97588, 12.74538], [79.97561, 12.7452], [79.97532, 12.74482], [79.97502, 12.74462], [79.97486, 12.74429], [79.97594, 12.73532], [79.97032, 12.72471], [79.97042, 12.71623], [79.96801, 12.70776], [79.96758, 12.69747]]]}}, {"type": "Feature", "id": "MW-032", "properties": {"watershed_id": "MW-032", "name": "Mahabalipuram-Palar Lower Estuarine", "block_name": "Thirukalukundram Block", "basin": "Palar Basin", "district": "Chengalpattu District"}, "geometry": {"type": "Polygon", "coordinates": [[[80.05415, 12.68244], [80.06196, 12.67689], [80.06813, 12.67109], [80.07163, 12.65981], [80.07717, 12.65225], [80.083, 12.64606], [80.09143, 12.64381], [80.10191, 12.6388], [80.11161, 12.6434], [80.11918, 12.64123], [80.12864, 12.63981], [80.13352, 12.64767], [80.13726, 12.6562], [80.14123, 12.66486], [80.14803, 12.67314], [80.15516, 12.67904], [80.15448, 12.68108], [80.15424, 12.68287], [80.15552, 12.68478], [80.1553, 12.68676], [80.15467, 12.68876], [80.14007, 12.69959], [80.12062, 12.70172], [80.10896, 12.70959], [80.09627, 12.7228], [80.08024, 12.73129], [80.07731, 12.72837], [80.07446, 12.72548], [80.07004, 12.72378], [80.06791, 12.72112], [80.06574, 12.71722], [80.06463, 12.71036], [80.06074, 12.70415], [80.05513, 12.69686], [80.05679, 12.68979], [80.05415, 12.68244]]]}}, {"type": "Feature", "id": "MW-004", "properties": {"watershed_id": "MW-004", "name": "Chembarambakkam Upper Catchment", "block_name": "Sriperumbudur Block", "basin": "Chennai Basin", "district": "Kancheepuram District"}, "geometry": {"type": "Polygon", "coordinates": [[[80.02694, 12.90429], [80.03784, 12.92218], [80.03727, 12.9427], [80.03907, 12.96562], [80.04314, 12.98435], [80.05552, 13.00434], [80.04719, 13.01354], [80.03144, 13.01605], [80.02389, 13.0216], [80.01433, 13.03073], [80.00135, 13.03539], [79.98996, 13.0317], [79.98556, 13.01861], [79.97052, 13.0205], [79.96485, 13.00917], [79.95527, 13.00462], [79.9684, 12.98189], [79.98234, 12.96028], [79.98695, 12.9401], [80.00722, 12.92071], [80.02694, 12.90429]]]}}, {"type": "Feature", "id": "MW-005", "properties": {"watershed_id": "MW-005", "name": "Kundrathur-Adyar Upper Sub-basin", "block_name": "Kundrathur Block", "basin": "Chennai Basin", "district": "Kancheepuram District"}, "geometry": {"type": "Polygon", "coordinates": [[[80.02694, 12.90429], [80.02808, 12.89963], [80.03119, 12.89447], [80.03124, 12.88991], [80.03266, 12.88512], [80.03223, 12.87959], [80.03531, 12.87939], [80.03806, 12.88101], [80.04196, 12.87998], [80.04503, 12.88124], [80.04804, 12.88121], [80.05289, 12.88339], [80.05985, 12.88412], [80.06273, 12.88754], [80.06869, 12.88876], [80.07358, 12.89261], [80.07891, 12.89823], [80.08549, 12.90078], [80.08972, 12.90767], [80.09442, 12.91334], [80.0996, 12.91806], [80.10663, 12.9283], [80.11094, 12.94257], [80.1115, 12.95538], [80.11611, 12.96543], [80.11718, 12.97825], [80.10365, 12.98125], [80.09428, 12.98908], [80.08461, 12.99878], [80.07598, 13.00542], [80.06291, 13.00882], [80.06118, 13.00839], [80.0602, 13.00684], [80.05826, 13.00694], [80.05704, 13.00504], [80.05552, 13.00434], [80.04314, 12.98435], [80.03907, 12.96562], [80.03727, 12.9427], [80.03784, 12.92218], [80.02694, 12.90429]]]}}, {"type": "Feature", "id": "MW-015", "properties": {"watershed_id": "MW-015", "name": "Sriperumbudur Industrial-Tank Sub-basin", "block_name": "Sriperumbudur Block", "basin": "Chennai Basin", "district": "Kancheepuram District"}, "geometry": {"type": "Polygon", "coordinates": [[[79.8585, 12.9289], [79.88798, 12.92171], [79.91477, 12.9049], [79.94616, 12.89453], [79.96283, 12.86913], [79.98955, 12.85027], [79.99543, 12.85404], [80.00357, 12.85459], [80.0069, 12.86174], [80.01369, 12.86339], [80.01986, 12.86636], [80.02217, 12.8695], [80.02581, 12.87011], [80.02693, 12.87402], [80.02905, 12.87729], [80.03223, 12.87959], [80.03266, 12.88512], [80.03124, 12.88991], [80.03119, 12.89447], [80.02808, 12.89963], [80.02694, 12.90429], [80.00722, 12.92071], [79.98695, 12.9401], [79.98234, 12.96028], [79.9684, 12.98189], [79.95527, 13.00462], [79.95026, 13.00476], [79.94425, 13.00502], [79.93926, 13.0055], [79.93506, 13.00974], [79.93, 13.0098], [79.91819, 13.00352], [79.90688, 13.0018], [79.89424, 12.9988], [79.88457, 12.98492], [79.87235, 12.98339], [79.86708, 12.97644], [79.86239, 12.97122], [79.85964, 12.96208], [79.85158, 12.95742], [79.84722, 12.95088], [79.8504, 12.94693], [79.84979, 12.94113], [79.85406, 12.93779], [79.85606, 12.93317], [79.8585, 12.9289]]]}}, {"type": "Feature", "id": "MW-021", "properties": {"watershed_id": "MW-021", "name": "Uthiramerur Historic Cascade Tank Zone", "block_name": "Uthiramerur Block", "basin": "Palar Basin", "district": "Kancheepuram District"}, "geometry": {"type": "Polygon", "coordinates": [[[79.85278, 12.74668], [79.86458, 12.7564], [79.87772, 12.7606], [79.89246, 12.77231], [79.8967, 12.78772], [79.91154, 12.79423], [79.89796, 12.80504], [79.88377, 12.81765], [79.8637, 12.81023], [79.84908, 12.82467], [79.834, 12.833], [79.82985, 12.82768], [79.82213, 12.82747], [79.81749, 12.82251], [79.81416, 12.8178], [79.80874, 12.81474], [79.80874, 12.81473], [79.80873, 12.81471], [79.80873, 12.8147], [79.80874, 12.81468], [79.80873, 12.81467], [79.81708, 12.80113], [79.82061, 12.78456], [79.83803, 12.77555], [79.84574, 12.76004], [79.85278, 12.74668]]]}}, {"type": "Feature", "id": "MW-022", "properties": {"watershed_id": "MW-022", "name": "Walajabad-Palar Confluence", "block_name": "Walajabad Block", "basin": "Palar Basin", "district": "Kancheepuram District"}, "geometry": {"type": "Polygon", "coordinates": [[[79.834, 12.833], [79.84908, 12.82467], [79.8637, 12.81023], [79.88377, 12.81765], [79.89796, 12.80504], [79.91154, 12.79423], [79.91526, 12.79506], [79.91912, 12.79407], [79.92259, 12.79413], [79.9264, 12.79462], [79.93, 12.79524], [79.93799, 12.80665], [79.95591, 12.80854], [79.96661, 12.81585], [79.971, 12.83017], [79.98309, 12.83821], [79.98395, 12.84085], [79.98482, 12.84361], [79.98772, 12.84547], [79.98765, 12.84843], [79.98955, 12.85027], [79.96283, 12.86913], [79.94616, 12.89453], [79.91477, 12.9049], [79.88798, 12.92171], [79.8585, 12.9289], [79.85699, 12.90835], [79.85663, 12.88743], [79.84987, 12.86747], [79.83644, 12.853], [79.834, 12.833]]]}}, {"type": "Feature", "id": "MW-023", "properties": {"watershed_id": "MW-023", "name": "Kancheepuram-Vegavathi Sub-basin", "block_name": "Kancheepuram Block", "basin": "Palar Basin", "district": "Kancheepuram District"}, "geometry": {"type": "Polygon", "coordinates": [[[79.74879, 12.88345], [79.75093, 12.87407], [79.75659, 12.86807], [79.75422, 12.85805], [79.75815, 12.84836], [79.76089, 12.8405], [79.76968, 12.83477], [79.77878, 12.82506], [79.78884, 12.82603], [79.7991, 12.82163], [79.80874, 12.81474], [79.81416, 12.8178], [79.81749, 12.82251], [79.82213, 12.82747], [79.82985, 12.82768], [79.834, 12.833], [79.83644, 12.853], [79.84987, 12.86747], [79.85663, 12.88743], [79.85699, 12.90835], [79.8585, 12.9289], [79.85606, 12.93317], [79.85406, 12.93779], [79.84979, 12.94113], [79.8504, 12.94693], [79.84722, 12.95088], [79.84389, 12.95113], [79.84046, 12.95195], [79.83744, 12.9535], [79.83448, 12.95309], [79.83108, 12.95288], [79.82199, 12.95289], [79.81255, 12.95171], [79.80766, 12.94313], [79.7978, 12.94367], [79.78909, 12.94136], [79.78316, 12.93622], [79.7783, 12.93077], [79.77227, 12.92639], [79.76701, 12.92247], [79.76164, 12.91775], [79.75968, 12.91133], [79.75924, 12.90405], [79.75579, 12.89643], [79.75015, 12.89059], [79.74879, 12.88345]]]}}, {"type": "Feature", "id": "MW-033", "properties": {"watershed_id": "MW-033", "name": "Siruvani-Boluvampatti Western Ghats", "block_name": "Thondamuthur Block", "basin": "Cauvery Basin", "district": "Coimbatore District"}, "geometry": {"type": "Polygon", "coordinates": [[[76.81629, 10.96856], [76.82711, 10.96581], [76.83594, 10.96136], [76.84708, 10.95795], [76.8553, 10.94919], [76.86525, 10.94332], [76.87029, 10.94599], [76.87485, 10.95119], [76.87906, 10.9534], [76.8848, 10.95504], [76.8897, 10.95911], [76.8935, 10.97551], [76.8945, 10.99093], [76.91118, 11.00233], [76.9133, 11.0211], [76.91537, 11.03611], [76.91275, 11.03959], [76.91062, 11.04273], [76.90657, 11.04621], [76.90328, 11.04824], [76.8992, 11.04997], [76.89846, 11.05016], [76.89774, 11.05067], [76.89695, 11.05072], [76.89614, 11.05066], [76.89536, 11.05091], [76.88731, 11.04795], [76.87924, 11.04764], [76.87179, 11.04923], [76.86481, 11.04582], [76.857, 11.04606], [76.85246, 11.04452], [76.84835, 11.04182], [76.84362, 11.04067], [76.84031, 11.0358], [76.83588, 11.03404], [76.83268, 11.03096], [76.82871, 11.02806], [76.82766, 11.02235], [76.82434, 11.01858], [76.82162, 11.01515], [76.81934, 11.00623], [76.81481, 10.99773], [76.81416, 10.98875], [76.8159, 10.97802], [76.81629, 10.96856]]]}}, {"type": "Feature", "id": "MW-034", "properties": {"watershed_id": "MW-034", "name": "Noyyal Urban Coimbatore (Singanallur)", "block_name": "Coimbatore South", "basin": "Cauvery Basin", "district": "Coimbatore District"}, "geometry": {"type": "Polygon", "coordinates": [[[76.99274, 10.94162], [76.9931, 10.94125], [76.99369, 10.94107], [76.99402, 10.94056], [76.99457, 10.94064], [76.995, 10.94029], [77.00641, 10.94402], [77.02031, 10.9453], [77.03089, 10.95072], [77.04472, 10.95344], [77.05801, 10.95171], [77.06286, 10.95573], [77.06428, 10.96204], [77.07255, 10.96512], [77.07544, 10.9705], [77.07959, 10.97485], [77.07528, 10.98897], [77.07041, 11.00168], [77.06553, 11.0161], [77.06248, 11.02942], [77.061, 11.043], [77.05342, 11.04718], [77.04617, 11.05661], [77.04002, 11.06004], [77.03002, 11.06386], [77.02151, 11.06813], [77.00516, 11.05953], [76.98703, 11.05509], [76.97019, 11.05051], [76.95331, 11.03875], [76.93595, 11.03248], [76.95032, 11.0154], [76.96412, 11.00269], [76.97087, 10.98088], [76.98643, 10.96288], [76.99274, 10.94162]]]}}, {"type": "Feature", "id": "MW-035", "properties": {"watershed_id": "MW-035", "name": "Sulur-Palladam Semi-Arid Noyyal", "block_name": "Sulur Block", "basin": "Cauvery Basin", "district": "Coimbatore District"}, "geometry": {"type": "Polygon", "coordinates": [[[77.07959, 10.97485], [77.08565, 10.97471], [77.09298, 10.97325], [77.09951, 10.97163], [77.10584, 10.97079], [77.11169, 10.96895], [77.11928, 10.97488], [77.13087, 10.9727], [77.1348, 10.98362], [77.14433, 10.9861], [77.15362, 10.98767], [77.15595, 10.9934], [77.15739, 10.99969], [77.16221, 11.00377], [77.16689, 11.00911], [77.16941, 11.01485], [77.17078, 11.0196], [77.16809, 11.02458], [77.16962, 11.02844], [77.16954, 11.03336], [77.16896, 11.03835], [77.16632, 11.04361], [77.16057, 11.04849], [77.15775, 11.05403], [77.15621, 11.05968], [77.15253, 11.06464], [77.14657, 11.0653], [77.14163, 11.06951], [77.1365, 11.07154], [77.13095, 11.07215], [77.12657, 11.07578], [77.11258, 11.0686], [77.09884, 11.06546], [77.08573, 11.06113], [77.075, 11.04959], [77.061, 11.043], [77.06248, 11.02942], [77.06553, 11.0161], [77.07041, 11.00168], [77.07528, 10.98897], [77.07959, 10.97485]]]}}, {"type": "Feature", "id": "MW-036", "properties": {"watershed_id": "MW-036", "name": "Perur-Chitrachavadi Noyyal Upper", "block_name": "Perur Block", "basin": "Cauvery Basin", "district": "Coimbatore District"}, "geometry": {"type": "Polygon", "coordinates": [[[76.8897, 10.95911], [76.89467, 10.94935], [76.89896, 10.93616], [76.90862, 10.9289], [76.91736, 10.92074], [76.92278, 10.91005], [76.93456, 10.91797], [76.95228, 10.91714], [76.96601, 10.92887], [76.97823, 10.9365], [76.99274, 10.94162], [76.98643, 10.96288], [76.97087, 10.98088], [76.96412, 11.00269], [76.95032, 11.0154], [76.93595, 11.03248], [76.93196, 11.03416], [76.92707, 11.03312], [76.92325, 11.03367], [76.91977, 11.03665], [76.91537, 11.03611], [76.9133, 11.0211], [76.91118, 11.00233], [76.8945, 10.99093], [76.8935, 10.97551], [76.8897, 10.95911]]]}}, {"type": "Feature", "id": "MW-037", "properties": {"watershed_id": "MW-037", "name": "Karamadai-Mettupalayam Bhavani Rim", "block_name": "Karamadai Block", "basin": "Cauvery Basin", "district": "Coimbatore District"}, "geometry": {"type": "Polygon", "coordinates": [[[76.8992, 11.04997], [76.90328, 11.04824], [76.90657, 11.04621], [76.91062, 11.04273], [76.91275, 11.03959], [76.91537, 11.03611], [76.91977, 11.03665], [76.92325, 11.03367], [76.92707, 11.03312], [76.93196, 11.03416], [76.93595, 11.03248], [76.95331, 11.03875], [76.97019, 11.05051], [76.98703, 11.05509], [77.00516, 11.05953], [77.02151, 11.06813], [77.02373, 11.07387], [77.02153, 11.07929], [77.0241, 11.08453], [77.02199, 11.0903], [77.02384, 11.09613], [77.01938, 11.10512], [77.00969, 11.11272], [77.00921, 11.12536], [76.99968, 11.13282], [76.995, 11.1425], [76.97933, 11.14376], [76.96602, 11.13935], [76.95194, 11.13319], [76.93949, 11.1355], [76.92583, 11.12952], [76.92308, 11.11119], [76.91573, 11.09843], [76.91733, 11.08173], [76.90726, 11.06368], [76.8992, 11.04997]]]}}, {"type": "Feature", "id": "MW-038", "properties": {"watershed_id": "MW-038", "name": "Annur-Kousika River Dry Sub-basin", "block_name": "Annur Block", "basin": "Cauvery Basin", "district": "Coimbatore District"}, "geometry": {"type": "Polygon", "coordinates": [[[77.02151, 11.06813], [77.03002, 11.06386], [77.04002, 11.06004], [77.04617, 11.05661], [77.05342, 11.04718], [77.061, 11.043], [77.075, 11.04959], [77.08573, 11.06113], [77.09884, 11.06546], [77.11258, 11.0686], [77.12657, 11.07578], [77.12585, 11.08182], [77.1221, 11.08894], [77.12605, 11.09521], [77.12276, 11.10089], [77.1237, 11.10795], [77.11104, 11.11368], [77.09862, 11.11902], [77.08581, 11.12146], [77.07903, 11.13352], [77.0661, 11.13824], [77.05717, 11.13112], [77.05117, 11.11777], [77.03634, 11.11704], [77.03325, 11.10478], [77.02384, 11.09613], [77.02199, 11.0903], [77.0241, 11.08453], [77.02153, 11.07929], [77.02373, 11.07387], [77.02151, 11.06813]]]}}, {"type": "Feature", "id": "MW-041", "properties": {"watershed_id": "MW-041", "name": "Thiruvaiyaru-Kollidam Regulator", "block_name": "Thiruvaiyaru Block", "basin": "Cauvery Basin", "district": "Thanjavur District"}, "geometry": {"type": "Polygon", "coordinates": [[[79.02935, 10.85198], [79.04127, 10.84063], [79.05262, 10.83072], [79.06335, 10.82076], [79.0794, 10.81514], [79.08781, 10.80188], [79.10108, 10.8182], [79.11914, 10.83203], [79.13884, 10.84262], [79.15783, 10.85646], [79.178, 10.862], [79.17841, 10.86732], [79.1774, 10.87108], [79.17515, 10.8758], [79.17562, 10.88072], [79.17405, 10.8857], [79.1611, 10.88929], [79.15309, 10.90283], [79.13494, 10.90108], [79.12233, 10.90652], [79.11164, 10.91622], [79.09995, 10.9093], [79.08952, 10.90322], [79.07375, 10.90466], [79.06423, 10.89882], [79.05005, 10.89856], [79.0459, 10.88836], [79.04503, 10.87804], [79.03892, 10.86951], [79.03338, 10.8608], [79.02935, 10.85198]]]}}, {"type": "Feature", "id": "MW-042", "properties": {"watershed_id": "MW-042", "name": "Kallanai-Budalur Apex Delta", "block_name": "Budalur Block", "basin": "Cauvery Basin", "district": "Thanjavur District"}, "geometry": {"type": "Polygon", "coordinates": [[[78.99518, 10.75141], [79.00441, 10.74539], [79.0133, 10.73997], [79.01962, 10.73133], [79.0322, 10.72624], [79.03929, 10.71896], [79.04609, 10.71938], [79.05253, 10.71447], [79.05989, 10.71562], [79.06587, 10.7146], [79.07308, 10.71349], [79.07556, 10.73147], [79.08755, 10.74645], [79.08888, 10.76463], [79.08203, 10.78585], [79.08781, 10.80188], [79.0794, 10.81514], [79.06335, 10.82076], [79.05262, 10.83072], [79.04127, 10.84063], [79.02935, 10.85198], [79.02714, 10.85096], [79.02427, 10.85174], [79.02198, 10.84981], [79.01961, 10.84916], [79.017, 10.8493], [79.00834, 10.8422], [79.00338, 10.8296], [78.99253, 10.82527], [78.98614, 10.81506], [78.9824, 10.80454], [78.98369, 10.79293], [78.99148, 10.78548], [78.98555, 10.77074], [78.99089, 10.76171], [78.99518, 10.75141]]]}}, {"type": "Feature", "id": "MW-043", "properties": {"watershed_id": "MW-043", "name": "Orathanadu-Vennar Mid Delta", "block_name": "Orathanadu Block", "basin": "Cauvery Basin", "district": "Thanjavur District"}, "geometry": {"type": "Polygon", "coordinates": [[[79.11987, 10.68323], [79.12084, 10.68164], [79.12072, 10.67983], [79.12212, 10.67879], [79.12259, 10.67697], [79.12372, 10.6756], [79.13328, 10.66551], [79.14792, 10.66452], [79.15207, 10.65053], [79.16709, 10.64583], [79.175, 10.6351], [79.18788, 10.6388], [79.20213, 10.63401], [79.21312, 10.63445], [79.22595, 10.63186], [79.23913, 10.63464], [79.24278, 10.63902], [79.24644, 10.64458], [79.25109, 10.64895], [79.25714, 10.65111], [79.26122, 10.65555], [79.26625, 10.67197], [79.27843, 10.68881], [79.28162, 10.7037], [79.28562, 10.72331], [79.29509, 10.74023], [79.29549, 10.74541], [79.29126, 10.7497], [79.29253, 10.75473], [79.29213, 10.75948], [79.2916, 10.76434], [79.29065, 10.76768], [79.2877, 10.76993], [79.28784, 10.77325], [79.28487, 10.77621], [79.28415, 10.77949], [79.27874, 10.78245], [79.27169, 10.78229], [79.26429, 10.78198], [79.25928, 10.7869], [79.25312, 10.78688], [79.22051, 10.77003], [79.19573, 10.74319], [79.16703, 10.73493], [79.14784, 10.70453], [79.11987, 10.68323]]]}}, {"type": "Feature", "id": "MW-044", "properties": {"watershed_id": "MW-044", "name": "Thanjavur-Grand Anicut Canal Zone", "block_name": "Thanjavur Block", "basin": "Cauvery Basin", "district": "Thanjavur District"}, "geometry": {"type": "Polygon", "coordinates": [[[79.07308, 10.71349], [79.07555, 10.71156], [79.07807, 10.70954], [79.0787, 10.70558], [79.08223, 10.70425], [79.08366, 10.70123], [79.09102, 10.69799], [79.09867, 10.69655], [79.10498, 10.69026], [79.11126, 10.68568], [79.11987, 10.68323], [79.14784, 10.70453], [79.16703, 10.73493], [79.19573, 10.74319], [79.22051, 10.77003], [79.25312, 10.78688], [79.2408, 10.80631], [79.22316, 10.81544], [79.2091, 10.83035], [79.19205, 10.84639], [79.178, 10.862], [79.15783, 10.85646], [79.13884, 10.84262], [79.11914, 10.83203], [79.10108, 10.8182], [79.08781, 10.80188], [79.08203, 10.78585], [79.08888, 10.76463], [79.08755, 10.74645], [79.07556, 10.73147], [79.07308, 10.71349]]]}}, {"type": "Feature", "id": "MW-045", "properties": {"watershed_id": "MW-045", "name": "Kumbakonam-Cauvery Distributary", "block_name": "Kumbakonam Block", "basin": "Cauvery Basin", "district": "Thanjavur District"}, "geometry": {"type": "Polygon", "coordinates": [[[79.25312, 10.78688], [79.25928, 10.7869], [79.26429, 10.78198], [79.27169, 10.78229], [79.27874, 10.78245], [79.28415, 10.77949], [79.2856, 10.78174], [79.28787, 10.783], [79.28923, 10.7851], [79.29041, 10.78741], [79.29258, 10.78919], [79.29639, 10.79867], [79.3038, 10.8046], [79.30503, 10.81731], [79.30708, 10.82602], [79.31197, 10.83521], [79.31318, 10.84917], [79.31239, 10.8631], [79.30278, 10.87739], [79.30926, 10.89348], [79.30594, 10.90684], [79.29466, 10.91611], [79.27744, 10.91395], [79.27124, 10.92889], [79.25842, 10.93224], [79.24426, 10.93503], [79.22851, 10.92748], [79.21733, 10.91293], [79.20109, 10.91059], [79.1914, 10.8936], [79.175, 10.88737], [79.17483, 10.887], [79.17459, 10.88674], [79.17444, 10.88631], [79.17415, 10.88612], [79.17405, 10.8857], [79.17562, 10.88072], [79.17515, 10.8758], [79.1774, 10.87108], [79.17841, 10.86732], [79.178, 10.862], [79.19205, 10.84639], [79.2091, 10.83035], [79.22316, 10.81544], [79.2408, 10.80631], [79.25312, 10.78688]]]}}, {"type": "Feature", "id": "MW-046", "properties": {"watershed_id": "MW-046", "name": "Pattukkottai-Agniyar Tail-End", "block_name": "Pattukkottai Block", "basin": "Cauvery Basin", "district": "Thanjavur District"}, "geometry": {"type": "Polygon", "coordinates": [[[79.26122, 10.65555], [79.28009, 10.64918], [79.29569, 10.63594], [79.31009, 10.62079], [79.32245, 10.60507], [79.34122, 10.59771], [79.33623, 10.62183], [79.32966, 10.6412], [79.32765, 10.66759], [79.31792, 10.69001], [79.31928, 10.71322], [79.31591, 10.71924], [79.31287, 10.72561], [79.30396, 10.72882], [79.30125, 10.73599], [79.29509, 10.74023], [79.28562, 10.72331], [79.28162, 10.7037], [79.27843, 10.68881], [79.26625, 10.67197], [79.26122, 10.65555]]]}}, {"type": "Feature", "id": "MW-048", "properties": {"watershed_id": "MW-048", "name": "Vadipatti-Sholavandan Vaigai Valley", "block_name": "Vadipatti Block", "basin": "Vaigai-Tamiraparani Basin", "district": "Madurai District"}, "geometry": {"type": "Polygon", "coordinates": [[[77.95804, 9.97093], [77.96292, 9.965], [77.97065, 9.96104], [77.97241, 9.95312], [77.97759, 9.94669], [77.98254, 9.94092], [77.98623, 9.9381], [77.98958, 9.9368], [77.99509, 9.93559], [77.99726, 9.93189], [78.00159, 9.93028], [78.00976, 9.92932], [78.01762, 9.93064], [78.02437, 9.93707], [78.03452, 9.93419], [78.04179, 9.93737], [78.04405, 9.93868], [78.04512, 9.94202], [78.04905, 9.94237], [78.05032, 9.94415], [78.05196, 9.94682], [78.05403, 9.94875], [78.05621, 9.95144], [78.05747, 9.95381], [78.05728, 9.95741], [78.05918, 9.95966], [78.05259, 9.97405], [78.04993, 9.99267], [78.05372, 10.01075], [78.04071, 10.02505], [78.03696, 10.04116], [78.02814, 10.04363], [78.01831, 10.04508], [78.00961, 10.05116], [77.99964, 10.05044], [77.99117, 10.05242], [77.98575, 10.04427], [77.97485, 10.04179], [77.96793, 10.03455], [77.95924, 10.02642], [77.9517, 10.01997], [77.95502, 10.01007], [77.95779, 10.00198], [77.96008, 9.99019], [77.95404, 9.98041], [77.95804, 9.97093]]]}}, {"type": "Feature", "id": "MW-049", "properties": {"watershed_id": "MW-049", "name": "Alanganallur-Sathiyar Foothill Dam", "block_name": "Alanganallur Block", "basin": "Vaigai-Tamiraparani Basin", "district": "Madurai District"}, "geometry": {"type": "Polygon", "coordinates": [[[78.05918, 9.95966], [78.07748, 9.96428], [78.0964, 9.97475], [78.11035, 9.98836], [78.13155, 9.99537], [78.15277, 9.99865], [78.15565, 10.0047], [78.15256, 10.01123], [78.15862, 10.01648], [78.15817, 10.02298], [78.15979, 10.02909], [78.15758, 10.03465], [78.1579, 10.04079], [78.15048, 10.04465], [78.14835, 10.05092], [78.14725, 10.05659], [78.13901, 10.06355], [78.12634, 10.06478], [78.11607, 10.07062], [78.10689, 10.081], [78.09667, 10.08449], [78.08709, 10.07888], [78.07879, 10.07144], [78.06685, 10.06679], [78.05527, 10.06329], [78.04537, 10.05895], [78.0425, 10.05585], [78.04025, 10.05271], [78.04131, 10.04783], [78.03789, 10.04484], [78.03696, 10.04116], [78.04071, 10.02505], [78.05372, 10.01075], [78.04993, 9.99267], [78.05259, 9.97405], [78.05918, 9.95966]]]}}, {"type": "Feature", "id": "MW-050", "properties": {"watershed_id": "MW-050", "name": "Melur-Periyar Main Canal Command", "block_name": "Melur Block", "basin": "Vaigai-Tamiraparani Basin", "district": "Madurai District"}, "geometry": {"type": "Polygon", "coordinates": [[[78.15277, 9.99865], [78.16517, 9.98687], [78.17717, 9.97999], [78.18359, 9.96176], [78.20321, 9.95627], [78.21327, 9.94487], [78.22054, 9.94884], [78.22395, 9.95705], [78.23082, 9.96009], [78.23719, 9.96605], [78.24207, 9.97236], [78.24113, 9.98439], [78.2417, 9.99342], [78.24341, 10.00652], [78.25057, 10.01674], [78.25159, 10.02687], [78.24237, 10.03187], [78.22966, 10.03307], [78.21732, 10.03435], [78.20893, 10.04034], [78.19872, 10.0475], [78.19243, 10.04188], [78.18314, 10.03928], [78.17598, 10.03427], [78.16717, 10.03324], [78.15979, 10.02909], [78.15817, 10.02298], [78.15862, 10.01648], [78.15256, 10.01123], [78.15565, 10.0047], [78.15277, 9.99865]]]}}, {"type": "Feature", "id": "MW-051", "properties": {"watershed_id": "MW-051", "name": "Madurai Urban Vaigai-Vandiyur Tank", "block_name": "Madurai East Block", "basin": "Vaigai-Tamiraparani Basin", "district": "Madurai District"}, "geometry": {"type": "Polygon", "coordinates": [[[78.1733, 9.87402], [78.1761, 9.87433], [78.17791, 9.87552], [78.17996, 9.87817], [78.18254, 9.87829], [78.1849, 9.87894], [78.19116, 9.88466], [78.19171, 9.89427], [78.19802, 9.89947], [78.20197, 9.90529], [78.20826, 9.90981], [78.20793, 9.91601], [78.20979, 9.92166], [78.20997, 9.92907], [78.21268, 9.93423], [78.21422, 9.9402], [78.21407, 9.94112], [78.2139, 9.94208], [78.21357, 9.94308], [78.2134, 9.94387], [78.21327, 9.94487], [78.20321, 9.95627], [78.18359, 9.96176], [78.17717, 9.97999], [78.16517, 9.98687], [78.15277, 9.99865], [78.13155, 9.99537], [78.11035, 9.98836], [78.0964, 9.97475], [78.07748, 9.96428], [78.05918, 9.95966], [78.05728, 9.95741], [78.05747, 9.95381], [78.05621, 9.95144], [78.05403, 9.94875], [78.05196, 9.94682], [78.0795, 9.93701], [78.10917, 9.92542], [78.11951, 9.89621], [78.14804, 9.8843], [78.1733, 9.87402]]]}}, {"type": "Feature", "id": "MW-052", "properties": {"watershed_id": "MW-052", "name": "Thirumangalam-Gundar Dry Sub-basin", "block_name": "Thirumangalam Block", "basin": "Vaigai-Tamiraparani Basin", "district": "Madurai District"}, "geometry": {"type": "Polygon", "coordinates": [[[77.98335, 9.84307], [77.99404, 9.83965], [78.0029, 9.83204], [78.01354, 9.82626], [78.02592, 9.8259], [78.03674, 9.81927], [78.04283, 9.82526], [78.05202, 9.8299], [78.05305, 9.83936], [78.06087, 9.84644], [78.06728, 9.85241], [78.06414, 9.87159], [78.06311, 9.8874], [78.05767, 9.90705], [78.04336, 9.92005], [78.04179, 9.93737], [78.03452, 9.93419], [78.02437, 9.93707], [78.01762, 9.93064], [78.00976, 9.92932], [78.00159, 9.93028], [78.00026, 9.92689], [77.99776, 9.92489], [77.99771, 9.92074], [77.99403, 9.91878], [77.99276, 9.91514], [77.99082, 9.90014], [77.98375, 9.88507], [77.989, 9.87085], [77.98378, 9.85787], [77.98335, 9.84307]]]}}, {"type": "Feature", "id": "MW-053", "properties": {"watershed_id": "MW-053", "name": "Thiruparankundram-Avaniyapuram Tank", "block_name": "Thiruparankundram Block", "basin": "Vaigai-Tamiraparani Basin", "district": "Madurai District"}, "geometry": {"type": "Polygon", "coordinates": [[[78.06728, 9.85241], [78.07449, 9.8493], [78.08087, 9.84684], [78.08362, 9.83828], [78.09041, 9.83651], [78.09667, 9.83257], [78.10759, 9.8338], [78.11684, 9.84091], [78.12772, 9.843], [78.13938, 9.8419], [78.14954, 9.84252], [78.15372, 9.84989], [78.15636, 9.85796], [78.16523, 9.86067], [78.16852, 9.86845], [78.1733, 9.87402], [78.14804, 9.8843], [78.11951, 9.89621], [78.10917, 9.92542], [78.0795, 9.93701], [78.05196, 9.94682], [78.05032, 9.94415], [78.04905, 9.94237], [78.04512, 9.94202], [78.04405, 9.93868], [78.04179, 9.93737], [78.04336, 9.92005], [78.05767, 9.90705], [78.06311, 9.8874], [78.06414, 9.87159], [78.06728, 9.85241]]]}}, {"type": "Feature", "id": "MW-056", "properties": {"watershed_id": "MW-056", "name": "Agasthiyar-Papanasam Tamiraparani Upper", "block_name": "Papanasam Block", "basin": "Vaigai-Tamiraparani Basin", "district": "Tirunelveli District"}, "geometry": {"type": "Polygon", "coordinates": [[[77.48961, 8.68643], [77.49578, 8.68087], [77.50063, 8.67105], [77.50878, 8.66841], [77.51003, 8.6565], [77.51711, 8.65114], [77.52343, 8.65172], [77.5302, 8.6489], [77.53678, 8.64732], [77.54248, 8.64588], [77.54903, 8.6454], [77.55385, 8.65316], [77.5654, 8.65377], [77.56862, 8.66355], [77.57691, 8.66702], [77.58211, 8.67434], [77.57085, 8.68819], [77.5668, 8.7087], [77.5536, 8.72077], [77.54132, 8.73769], [77.52991, 8.75264], [77.52213, 8.74831], [77.51913, 8.73887], [77.50839, 8.7389], [77.50601, 8.73052], [77.49741, 8.72683], [77.49554, 8.71868], [77.49634, 8.71126], [77.4958, 8.70313], [77.49092, 8.69466], [77.48961, 8.68643]]]}}, {"type": "Feature", "id": "MW-057", "properties": {"watershed_id": "MW-057", "name": "Ambasamudram-Gadana Foothill Valley", "block_name": "Ambasamudram Block", "basin": "Vaigai-Tamiraparani Basin", "district": "Tirunelveli District"}, "geometry": {"type": "Polygon", "coordinates": [[[77.58211, 8.67434], [77.58282, 8.67425], [77.58334, 8.67472], [77.58402, 8.67455], [77.58478, 8.67454], [77.58538, 8.67462], [77.59944, 8.68517], [77.61125, 8.69876], [77.62035, 8.70858], [77.64018, 8.71694], [77.64992, 8.72993], [77.65094, 8.73343], [77.64976, 8.73679], [77.65151, 8.74064], [77.65086, 8.74362], [77.65085, 8.74735], [77.64202, 8.75596], [77.64053, 8.76997], [77.63449, 8.78006], [77.62339, 8.78454], [77.61752, 8.79498], [77.61694, 8.79514], [77.61644, 8.79559], [77.61573, 8.79536], [77.61531, 8.79601], [77.61468, 8.79608], [77.60386, 8.79511], [77.59205, 8.79328], [77.58412, 8.78643], [77.57171, 8.7867], [77.56144, 8.78632], [77.55576, 8.77859], [77.54999, 8.7728], [77.54169, 8.76788], [77.53831, 8.75942], [77.53017, 8.75379], [77.53011, 8.75357], [77.53016, 8.75328], [77.53014, 8.7531], [77.52995, 8.75289], [77.52991, 8.75264], [77.54132, 8.73769], [77.5536, 8.72077], [77.5668, 8.7087], [77.57085, 8.68819], [77.58211, 8.67434]]]}}, {"type": "Feature", "id": "MW-058", "properties": {"watershed_id": "MW-058", "name": "Tirunelveli-Palayamkottai Channel Zone", "block_name": "Palayamkottai Block", "basin": "Vaigai-Tamiraparani Basin", "district": "Tirunelveli District"}, "geometry": {"type": "Polygon", "coordinates": [[[77.698, 8.6765], [77.7062, 8.67783], [77.71546, 8.67854], [77.72285, 8.67532], [77.73071, 8.67874], [77.73888, 8.6765], [77.74846, 8.68903], [77.75024, 8.70626], [77.76813, 8.71513], [77.76716, 8.73593], [77.77778, 8.74889], [77.76707, 8.75402], [77.75952, 8.75828], [77.74849, 8.76504], [77.74098, 8.77021], [77.73339, 8.77951], [77.71861, 8.77013], [77.69745, 8.77071], [77.68605, 8.7538], [77.66533, 8.75678], [77.65085, 8.74735], [77.65086, 8.74362], [77.65151, 8.74064], [77.64976, 8.73679], [77.65094, 8.73343], [77.64992, 8.72993], [77.65892, 8.71709], [77.67416, 8.71172], [77.6829, 8.70312], [77.68889, 8.68881], [77.698, 8.6765]]]}}, {"type": "Feature", "id": "MW-059", "properties": {"watershed_id": "MW-059", "name": "Cheranmahadevi-Kannadian Canal Zone", "block_name": "Cheranmahadevi Block", "basin": "Vaigai-Tamiraparani Basin", "district": "Tirunelveli District"}, "geometry": {"type": "Polygon", "coordinates": [[[77.65175, 8.60825], [77.65317, 8.6077], [77.65453, 8.60754], [77.65588, 8.60713], [77.65727, 8.60743], [77.65861, 8.60757], [77.66992, 8.61841], [77.68135, 8.6321], [77.67994, 8.65209], [77.68827, 8.66301], [77.698, 8.6765], [77.68889, 8.68881], [77.6829, 8.70312], [77.67416, 8.71172], [77.65892, 8.71709], [77.64992, 8.72993], [77.64018, 8.71694], [77.62035, 8.70858], [77.61125, 8.69876], [77.59944, 8.68517], [77.58538, 8.67462], [77.59657, 8.66148], [77.60972, 8.64212], [77.62195, 8.62783], [77.63743, 8.62214], [77.65175, 8.60825]]]}}, {"type": "Feature", "id": "MW-060", "properties": {"watershed_id": "MW-060", "name": "Manur-Chittar Dry Upland Catchment", "block_name": "Manur Block", "basin": "Vaigai-Tamiraparani Basin", "district": "Tirunelveli District"}, "geometry": {"type": "Polygon", "coordinates": [[[77.61752, 8.79498], [77.62339, 8.78454], [77.63449, 8.78006], [77.64053, 8.76997], [77.64202, 8.75596], [77.65085, 8.74735], [77.66533, 8.75678], [77.68605, 8.7538], [77.69745, 8.77071], [77.71861, 8.77013], [77.73339, 8.77951], [77.73341, 8.78759], [77.73393, 8.79603], [77.72866, 8.80336], [77.73186, 8.81224], [77.72887, 8.82017], [77.71679, 8.82109], [77.70681, 8.82928], [77.69583, 8.83765], [77.68246, 8.8389], [77.67056, 8.84314], [77.65801, 8.83741], [77.651, 8.82054], [77.64305, 8.8092], [77.62603, 8.8069], [77.61752, 8.79498]]]}}, {"type": "Feature", "id": "MW-025", "properties": {"watershed_id": "MW-025", "name": "Kalakkad-Pachaiyar Foothill Sub-basin", "block_name": "Kalakkad Block", "basin": "Vaigai-Tamiraparani Basin", "district": "Tirunelveli District"}, "geometry": {"type": "Polygon", "coordinates": [[[77.5519, 8.61346], [77.55941, 8.60361], [77.57025, 8.59735], [77.5826, 8.59156], [77.59205, 8.58347], [77.60346, 8.57742], [77.61228, 8.58534], [77.61908, 8.5932], [77.63164, 8.59624], [77.64151, 8.6024], [77.65175, 8.60825], [77.63743, 8.62214], [77.62195, 8.62783], [77.60972, 8.64212], [77.59657, 8.66148], [77.58538, 8.67462], [77.58478, 8.67454], [77.58402, 8.67455], [77.58334, 8.67472], [77.58282, 8.67425], [77.58211, 8.67434], [77.57691, 8.66702], [77.56862, 8.66355], [77.5654, 8.65377], [77.55385, 8.65316], [77.54903, 8.6454], [77.54891, 8.63934], [77.55184, 8.63213], [77.55306, 8.6265], [77.55134, 8.61979], [77.5519, 8.61346]]]}}, {"type": "Feature", "id": "MW-026", "properties": {"watershed_id": "MW-026", "name": "Nanguneri-Nambiyar Dry Tank Belt", "block_name": "Nanguneri Block", "basin": "Vaigai-Tamiraparani Basin", "district": "Tirunelveli District"}, "geometry": {"type": "Polygon", "coordinates": [[[77.65861, 8.60757], [77.66112, 8.60478], [77.66269, 8.60145], [77.66632, 8.5995], [77.6673, 8.59606], [77.67056, 8.59395], [77.68329, 8.59002], [77.69608, 8.58674], [77.71052, 8.58991], [77.72233, 8.59195], [77.73513, 8.5868], [77.74485, 8.59288], [77.74764, 8.60529], [77.75759, 8.61463], [77.76827, 8.62069], [77.77314, 8.63082], [77.76523, 8.63834], [77.76206, 8.64998], [77.7521, 8.6584], [77.7434, 8.66657], [77.73888, 8.6765], [77.73071, 8.67874], [77.72285, 8.67532], [77.71546, 8.67854], [77.7062, 8.67783], [77.698, 8.6765], [77.68827, 8.66301], [77.67994, 8.65209], [77.68135, 8.6321], [77.66992, 8.61841], [77.65861, 8.60757]]]}}, {"type": "Feature", "id": "MW-027", "properties": {"watershed_id": "MW-027", "name": "Radhapuram-Karumeniyar Semi-Arid", "block_name": "Radhapuram Block", "basin": "Vaigai-Tamiraparani Basin", "district": "Tirunelveli District"}, "geometry": {"type": "Polygon", "coordinates": [[[77.73888, 8.6765], [77.7434, 8.66657], [77.7521, 8.6584], [77.76206, 8.64998], [77.76523, 8.63834], [77.77314, 8.63082], [77.77435, 8.63078], [77.77551, 8.63032], [77.77674, 8.62979], [77.77794, 8.62985], [77.77904, 8.62981], [77.78811, 8.63361], [77.7967, 8.64013], [77.80763, 8.64006], [77.81693, 8.6447], [77.82399, 8.65115], [77.82988, 8.6583], [77.83117, 8.66515], [77.83689, 8.67204], [77.83544, 8.68239], [77.83994, 8.68918], [77.83919, 8.69696], [77.83956, 8.70343], [77.83577, 8.71067], [77.83197, 8.7161], [77.83088, 8.72378], [77.82521, 8.72843], [77.82221, 8.73542], [77.81252, 8.73684], [77.8109, 8.74551], [77.8048, 8.74901], [77.80296, 8.7494], [77.80123, 8.74941], [77.7998, 8.75085], [77.79776, 8.75129], [77.79591, 8.75168], [77.79219, 8.75066], [77.78889, 8.75165], [77.78515, 8.7493], [77.78143, 8.75042], [77.77778, 8.74889], [77.76716, 8.73593], [77.76813, 8.71513], [77.75024, 8.70626], [77.74846, 8.68903], [77.73888, 8.6765]]]}}, {"type": "Feature", "id": "MW-054", "properties": {"watershed_id": "MW-054", "name": "Gangaikondan-Chittar Confluence", "block_name": "Palayamkottai North", "basin": "Vaigai-Tamiraparani Basin", "district": "Tirunelveli District"}, "geometry": {"type": "Polygon", "coordinates": [[[77.73339, 8.77951], [77.74098, 8.77021], [77.74849, 8.76504], [77.75952, 8.75828], [77.76707, 8.75402], [77.77778, 8.74889], [77.78143, 8.75042], [77.78515, 8.7493], [77.78889, 8.75165], [77.79219, 8.75066], [77.79591, 8.75168], [77.7938, 8.76754], [77.80575, 8.78205], [77.79623, 8.79656], [77.79993, 8.81271], [77.80552, 8.8279], [77.79269, 8.82933], [77.77861, 8.82753], [77.76342, 8.8283], [77.75038, 8.82689], [77.7356, 8.83006], [77.73391, 8.82837], [77.73346, 8.82588], [77.7315, 8.82441], [77.73005, 8.8225], [77.72887, 8.82017], [77.73186, 8.81224], [77.72866, 8.80336], [77.73393, 8.79603], [77.73341, 8.78759], [77.73339, 8.77951]]]}}]}