{"type": "FeatureCollection", "features": [{"type": "Feature", "id": "STR-MW-024", "properties": {"watershed_id": "MW-024", "name": "Chengam-Kuppanatham Sub-basin Main Channel", "stream_order": 3}, "geometry": {"type": "LineString", "coordinates": [[79.85433, 12.34051], [79.86488, 12.34608], [79.87718, 12.34173], [79.88814, 12.34497], [79.89887, 12.34956]]}}, {"type": "Feature", "id": "STR-MW-017", "properties": {"watershed_id": "MW-017", "name": "Polur-Kalasapakkam Cheyyar Upper Main Channel", "stream_order": 3}, "geometry": {"type": "LineString", "coordinates": [[79.1082, 12.48716], [79.11508, 12.50004], [79.12792, 12.51021], [79.12599, 12.52713], [79.13968, 12.5369]]}}, {"type": "Feature", "id": "STR-MW-031", "properties": {"watershed_id": "MW-031", "name": "Vandavasi-Marakkanam Dry Tank Zone Main Channel", "stream_order": 2}, "geometry": {"type": "LineString", "coordinates": [[79.61832, 12.47536], [79.61395, 12.49005], [79.60332, 12.50182], [79.60492, 12.51929], [79.59249, 12.53023]]}}, {"type": "Feature", "id": "STR-MW-006", "properties": {"watershed_id": "MW-006", "name": "Tiruvannamalai-Thurinjalar Catchment Main Channel", "stream_order": 3}, "geometry": {"type": "LineString", "coordinates": [[79.09564, 12.21075], [79.08489, 12.21794], [79.07244, 12.22336], [79.06349, 12.23245], [79.05641, 12.24353]]}}, {"type": "Feature", "id": "STR-MW-012", "properties": {"watershed_id": "MW-012", "name": "Cheyyar-Anakkavur Cascade Eri Zone Main Channel", "stream_order": 4}, "geometry": {"type": "LineString", "coordinates": [[79.56275, 12.65884], [79.55227, 12.65986], [79.54256, 12.66495], [79.53123, 12.66147], [79.52113, 12.66449]]}}, {"type": "Feature", "id": "STR-MW-028", "properties": {"watershed_id": "MW-028", "name": "Javadhu Hills-Jamunamarathur Escarpment Main Channel", "stream_order": 4}, "geometry": {"type": "LineString", "coordinates": [[78.89377, 12.5664], [78.89325, 12.58169], [78.88651, 12.59343], [78.87881, 12.60463], [78.87288, 12.61683]]}}, {"type": "Feature", "id": "STR-MW-029", "properties": {"watershed_id": "MW-029", "name": "Arani-Kamandalar River Sub-basin Main Channel", "stream_order": 2}, "geometry": {"type": "LineString", "coordinates": [[79.25644, 12.66903], [79.27054, 12.67163], [79.28547, 12.66678], [79.29911, 12.67356], [79.31328, 12.67549]]}}, {"type": "Feature", "id": "STR-MW-030", "properties": {"watershed_id": "MW-030", "name": "Thandrampet-Sathanur Reservoir Rim Main Channel", "stream_order": 4}, "geometry": {"type": "LineString", "coordinates": [[78.93203, 12.17338], [78.92366, 12.17945], [78.91435, 12.18385], [78.90725, 12.19215], [78.898, 12.19668]]}}, {"type": "Feature", "id": "STR-MW-001", "properties": {"watershed_id": "MW-001", "name": "Kattankulathur-Potheri (SRM Catchment) Main Channel", "stream_order": 2}, "geometry": {"type": "LineString", "coordinates": [[80.03302, 12.80358], [80.03738, 12.81373], [80.0449, 12.82265], [80.05114, 12.83207], [80.04919, 12.84464]]}}, {"type": "Feature", "id": "STR-MW-002", "properties": {"watershed_id": "MW-002", "name": "Pallikaranai Marsh South Catchment Main Channel", "stream_order": 3}, "geometry": {"type": "LineString", "coordinates": [[80.21692, 12.91452], [80.21848, 12.92528], [80.21847, 12.93572], [80.21224, 12.94487], [80.21306, 12.95547]]}}, {"type": "Feature", "id": "STR-MW-003", "properties": {"watershed_id": "MW-003", "name": "Velachery-Adambakkam Urban Sub-basin Main Channel", "stream_order": 2}, "geometry": {"type": "LineString", "coordinates": [[80.18804, 12.97334], [80.20227, 12.98052], [80.21712, 12.98408], [80.23209, 12.987], [80.24805, 12.98419]]}}, {"type": "Feature", "id": "STR-MW-004", "properties": {"watershed_id": "MW-004", "name": "Chembarambakkam Upper Catchment Main Channel", "stream_order": 2}, "geometry": {"type": "LineString", "coordinates": [[80.01505, 12.98698], [80.02611, 12.99814], [80.02872, 13.01117], [80.0315, 13.02417], [80.03527, 13.03695]]}}, {"type": "Feature", "id": "STR-MW-005", "properties": {"watershed_id": "MW-005", "name": "Chembarambakkam Surplus-Adyar Mid Main Channel", "stream_order": 3}, "geometry": {"type": "LineString", "coordinates": [[80.09235, 12.99519], [80.10411, 12.9986], [80.11506, 13.00479], [80.12723, 13.00678], [80.13814, 13.01313]]}}, {"type": "Feature", "id": "STR-MW-007", "properties": {"watershed_id": "MW-007", "name": "Guduvancheri-Nandivaram Eri Zone Main Channel", "stream_order": 2}, "geometry": {"type": "LineString", "coordinates": [[80.06121, 12.81943], [80.06496, 12.83204], [80.06579, 12.8448], [80.05986, 12.85792], [80.06466, 12.87047]]}}, {"type": "Feature", "id": "STR-MW-008", "properties": {"watershed_id": "MW-008", "name": "Porur-Manapakkam Sub-basin Main Channel", "stream_order": 2}, "geometry": {"type": "LineString", "coordinates": [[80.17774, 13.00783], [80.16796, 13.01997], [80.15571, 13.03041], [80.15102, 13.04608], [80.13909, 13.05675]]}}, {"type": "Feature", "id": "STR-MW-009", "properties": {"watershed_id": "MW-009", "name": "Korattur-Ambattur Industrial Tank Zone Main Channel", "stream_order": 3}, "geometry": {"type": "LineString", "coordinates": [[80.17443, 13.08193], [80.1692, 13.09555], [80.1586, 13.10597], [80.15606, 13.1212], [80.1503, 13.13451]]}}, {"type": "Feature", "id": "STR-MW-010", "properties": {"watershed_id": "MW-010", "name": "Red Hills (Puzhal) Reservoir Catchment Main Channel", "stream_order": 3}, "geometry": {"type": "LineString", "coordinates": [[80.14849, 13.17183], [80.16174, 13.17054], [80.17499, 13.17179], [80.18824, 13.17131], [80.2015, 13.17033]]}}, {"type": "Feature", "id": "STR-MW-011", "properties": {"watershed_id": "MW-011", "name": "Sholavaram-Kosasthalaiyar Mid Main Channel", "stream_order": 2}, "geometry": {"type": "LineString", "coordinates": [[80.18564, 13.22902], [80.17005, 13.22676], [80.1553, 13.2361], [80.13949, 13.23095], [80.12402, 13.23036]]}}, {"type": "Feature", "id": "STR-MW-013", "properties": {"watershed_id": "MW-013", "name": "Manali-Ennore Creek Estuarine Main Channel", "stream_order": 4}, "geometry": {"type": "LineString", "coordinates": [[80.28831, 13.18485], [80.28565, 13.19479], [80.28816, 13.20542], [80.28432, 13.2152], [80.2856, 13.22566]]}}, {"type": "Feature", "id": "STR-MW-014", "properties": {"watershed_id": "MW-014", "name": "Kelambakkam-Kovalam Backwater Basin Main Channel", "stream_order": 3}, "geometry": {"type": "LineString", "coordinates": [[80.2485, 12.77828], [80.23512, 12.78286], [80.22123, 12.78633], [80.20812, 12.7915], [80.19592, 12.79863]]}}, {"type": "Feature", "id": "STR-MW-015", "properties": {"watershed_id": "MW-015", "name": "Sriperumbudur Industrial-Tank Sub-basin Main Channel", "stream_order": 2}, "geometry": {"type": "LineString", "coordinates": [[79.95934, 12.94271], [79.95406, 12.9556], [79.94574, 12.96658], [79.94321, 12.98119], [79.93122, 12.98988]]}}, {"type": "Feature", "id": "STR-MW-016", "properties": {"watershed_id": "MW-016", "name": "Cooum Mid-Paruthipattu Catchment Main Channel", "stream_order": 2}, "geometry": {"type": "LineString", "coordinates": [[80.13065, 13.07185], [80.11784, 13.077], [80.105, 13.07494], [80.09218, 13.07803], [80.07936, 13.07921]]}}, {"type": "Feature", "id": "STR-MW-018", "properties": {"watershed_id": "MW-018", "name": "Thiruporur-OMR IT Corridor Catchment Main Channel", "stream_order": 3}, "geometry": {"type": "LineString", "coordinates": [[80.18487, 12.70037], [80.18964, 12.71335], [80.1826, 12.72466], [80.1792, 12.73648], [80.18086, 12.74903]]}}, {"type": "Feature", "id": "STR-MW-019", "properties": {"watershed_id": "MW-019", "name": "Madurantakam Eri Catchment Main Channel", "stream_order": 3}, "geometry": {"type": "LineString", "coordinates": [[79.87131, 12.48943], [79.87916, 12.50013], [79.88125, 12.51416], [79.89432, 12.52186], [79.89507, 12.53665]]}}, {"type": "Feature", "id": "STR-MW-020", "properties": {"watershed_id": "MW-020", "name": "Chengalpattu-Kolavai Lake Sub-basin Main Channel", "stream_order": 3}, "geometry": {"type": "LineString", "coordinates": [[79.99695, 12.67726], [79.99179, 12.6877], [79.982, 12.695], [79.97767, 12.706], [79.96595, 12.712]]}}, {"type": "Feature", "id": "STR-MW-021", "properties": {"watershed_id": "MW-021", "name": "Uthiramerur Historic Cascade Tank Zone Main Channel", "stream_order": 3}, "geometry": {"type": "LineString", "coordinates": [[79.74321, 12.59628], [79.74953, 12.6054], [79.75824, 12.61316], [79.7622, 12.62362], [79.76416, 12.63521]]}}, {"type": "Feature", "id": "STR-MW-022", "properties": {"watershed_id": "MW-022", "name": "Walajabad-Palar Confluence Main Channel", "stream_order": 2}, "geometry": {"type": "LineString", "coordinates": [[79.83824, 12.76569], [79.82726, 12.77294], [79.81942, 12.78283], [79.81696, 12.79724], [79.80271, 12.80174]]}}, {"type": "Feature", "id": "STR-MW-023", "properties": {"watershed_id": "MW-023", "name": "Kancheepuram-Vegavathi Sub-basin Main Channel", "stream_order": 4}, "geometry": {"type": "LineString", "coordinates": [[79.73458, 12.83122], [79.72015, 12.83745], [79.70472, 12.83584], [79.69055, 12.84406], [79.67531, 12.84391]]}}, {"type": "Feature", "id": "STR-MW-025", "properties": {"watershed_id": "MW-025", "name": "Arcot-Ranipet Palar Mid-Valley Main Channel", "stream_order": 3}, "geometry": {"type": "LineString", "coordinates": [[79.31366, 12.9028], [79.32487, 12.90858], [79.33038, 12.91944], [79.33887, 12.92765], [79.34913, 12.93427]]}}, {"type": "Feature", "id": "STR-MW-026", "properties": {"watershed_id": "MW-026", "name": "Vellore-Ponnaiyar Tributary Sub-basin Main Channel", "stream_order": 3}, "geometry": {"type": "LineString", "coordinates": [[79.15484, 12.91446], [79.14501, 12.92337], [79.13988, 12.9368], [79.12583, 12.94167], [79.11693, 12.95147]]}}, {"type": "Feature", "id": "STR-MW-027", "properties": {"watershed_id": "MW-027", "name": "Ambur-Vaniyambadi Upper Palar Main Channel", "stream_order": 5}, "geometry": {"type": "LineString", "coordinates": [[78.68829, 12.77357], [78.70039, 12.78309], [78.71555, 12.77967], [78.72775, 12.78878], [78.74218, 12.78842]]}}, {"type": "Feature", "id": "STR-MW-032", "properties": {"watershed_id": "MW-032", "name": "Kalpakkam-Palar Mouth Estuarine Main Channel", "stream_order": 3}, "geometry": {"type": "LineString", "coordinates": [[80.12849, 12.48406], [80.14015, 12.49205], [80.14647, 12.50393], [80.15664, 12.513], [80.15724, 12.52904]]}}, {"type": "Feature", "id": "STR-MW-033", "properties": {"watershed_id": "MW-033", "name": "Siruvani-Boluvampatti Western Ghats Main Channel", "stream_order": 4}, "geometry": {"type": "LineString", "coordinates": [[76.70836, 10.93409], [76.72015, 10.94185], [76.7285, 10.95228], [76.73502, 10.96414], [76.74207, 10.97558]]}}, {"type": "Feature", "id": "STR-MW-034", "properties": {"watershed_id": "MW-034", "name": "Noyyal Urban Coimbatore (Singanallur) Main Channel", "stream_order": 2}, "geometry": {"type": "LineString", "coordinates": [[77.00678, 10.96989], [77.01701, 10.98134], [77.01399, 10.99518], [77.0128, 11.0087], [77.02057, 11.02059]]}}, {"type": "Feature", "id": "STR-MW-035", "properties": {"watershed_id": "MW-035", "name": "Sulur-Palladam Semi-Arid Noyyal Main Channel", "stream_order": 3}, "geometry": {"type": "LineString", "coordinates": [[77.22962, 10.99793], [77.23609, 11.00789], [77.24509, 11.0149], [77.25568, 11.02005], [77.25998, 11.03253]]}}, {"type": "Feature", "id": "STR-MW-036", "properties": {"watershed_id": "MW-036", "name": "Tiruppur-Orathupalayam Noyyal Mid Main Channel", "stream_order": 3}, "geometry": {"type": "LineString", "coordinates": [[77.43795, 11.09862], [77.42668, 11.10319], [77.41444, 11.10118], [77.40375, 11.1097], [77.39113, 11.10515]]}}, {"type": "Feature", "id": "STR-MW-037", "properties": {"watershed_id": "MW-037", "name": "Bhavani Sagar Foothill Catchment Main Channel", "stream_order": 3}, "geometry": {"type": "LineString", "coordinates": [[77.13656, 11.46415], [77.12682, 11.47182], [77.11402, 11.47289], [77.10564, 11.48351], [77.09154, 11.48175]]}}, {"type": "Feature", "id": "STR-MW-038", "properties": {"watershed_id": "MW-038", "name": "Gobichettipalayam-Kodiveri Command Main Channel", "stream_order": 3}, "geometry": {"type": "LineString", "coordinates": [[77.46197, 11.44187], [77.44961, 11.44907], [77.43463, 11.45129], [77.42446, 11.46264], [77.4076, 11.46131]]}}, {"type": "Feature", "id": "STR-MW-039", "properties": {"watershed_id": "MW-039", "name": "Perundurai-Chennimalai Dry Upland Main Channel", "stream_order": 2}, "geometry": {"type": "LineString", "coordinates": [[77.55841, 11.21319], [77.5721, 11.21795], [77.58481, 11.22556], [77.6, 11.22596], [77.61227, 11.23485]]}}, {"type": "Feature", "id": "STR-MW-040", "properties": {"watershed_id": "MW-040", "name": "Karur-Amaravathi Confluence Main Channel", "stream_order": 3}, "geometry": {"type": "LineString", "coordinates": [[78.10965, 10.94045], [78.09323, 10.9447], [78.08402, 10.95692], [78.07429, 10.96856], [78.06349, 10.97902]]}}, {"type": "Feature", "id": "STR-MW-041", "properties": {"watershed_id": "MW-041", "name": "Srirangam-Kollidam Head Regulator Main Channel", "stream_order": 3}, "geometry": {"type": "LineString", "coordinates": [[78.71955, 10.84383], [78.70669, 10.8481], [78.69454, 10.85397], [78.68118, 10.85712], [78.67177, 10.86912]]}}, {"type": "Feature", "id": "STR-MW-042", "properties": {"watershed_id": "MW-042", "name": "Kallanai (Grand Anicut) Apex Delta Main Channel", "stream_order": 3}, "geometry": {"type": "LineString", "coordinates": [[78.84659, 10.82231], [78.83399, 10.826], [78.82226, 10.833], [78.81033, 10.83928], [78.79716, 10.84072]]}}, {"type": "Feature", "id": "STR-MW-043", "properties": {"watershed_id": "MW-043", "name": "Orathanadu-Vennar Mid Delta Main Channel", "stream_order": 3}, "geometry": {"type": "LineString", "coordinates": [[79.21623, 10.62118], [79.23202, 10.61702], [79.2455, 10.62286], [79.25805, 10.63266], [79.27383, 10.62856]]}}, {"type": "Feature", "id": "STR-MW-044", "properties": {"watershed_id": "MW-044", "name": "Mannargudi-Pamaniyar Intensive Paddy Main Channel", "stream_order": 3}, "geometry": {"type": "LineString", "coordinates": [[79.47593, 10.65093], [79.46186, 10.65478], [79.45141, 10.66411], [79.44101, 10.6735], [79.43131, 10.68398]]}}, {"type": "Feature", "id": "STR-MW-045", "properties": {"watershed_id": "MW-045", "name": "Mayiladuthurai-Kollidam Lower Main Channel", "stream_order": 5}, "geometry": {"type": "LineString", "coordinates": [[79.65995, 11.08128], [79.66232, 11.09482], [79.65835, 11.10616], [79.6476, 11.11516], [79.64546, 11.12713]]}}, {"type": "Feature", "id": "STR-MW-046", "properties": {"watershed_id": "MW-046", "name": "Vedaranyam-Point Calimere Tail-End Main Channel", "stream_order": 4}, "geometry": {"type": "LineString", "coordinates": [[79.84291, 10.36764], [79.83595, 10.37801], [79.82599, 10.38584], [79.81983, 10.39688], [79.81169, 10.40625]]}}, {"type": "Feature", "id": "STR-MW-047", "properties": {"watershed_id": "MW-047", "name": "Megamalai-Varushanad Steep Headwaters Main Channel", "stream_order": 3}, "geometry": {"type": "LineString", "coordinates": [[77.40885, 9.71036], [77.39756, 9.71868], [77.38432, 9.72393], [77.37214, 9.73084], [77.36043, 9.73851]]}}, {"type": "Feature", "id": "STR-MW-048", "properties": {"watershed_id": "MW-048", "name": "Cumbum Valley-Suruli Sub-basin Main Channel", "stream_order": 3}, "geometry": {"type": "LineString", "coordinates": [[77.33367, 9.80656], [77.32335, 9.81232], [77.31296, 9.81786], [77.30177, 9.82101], [77.29007, 9.82267]]}}, {"type": "Feature", "id": "STR-MW-049", "properties": {"watershed_id": "MW-049", "name": "Vaigai Reservoir-Andipatti Catchment Main Channel", "stream_order": 4}, "geometry": {"type": "LineString", "coordinates": [[77.56837, 10.02379], [77.57932, 10.033], [77.581, 10.04712], [77.5904, 10.05715], [77.59425, 10.07012]]}}, {"type": "Feature", "id": "STR-MW-050", "properties": {"watershed_id": "MW-050", "name": "Palani-Kodaikanal Southern Escarpment Main Channel", "stream_order": 4}, "geometry": {"type": "LineString", "coordinates": [[77.53214, 10.28864], [77.52372, 10.3008], [77.52411, 10.31481], [77.51954, 10.32778], [77.51619, 10.34101]]}}, {"type": "Feature", "id": "STR-MW-051", "properties": {"watershed_id": "MW-051", "name": "Madurai Urban Vaigai-Vandiyur Tank Main Channel", "stream_order": 2}, "geometry": {"type": "LineString", "coordinates": [[78.158, 9.90716], [78.15172, 9.91622], [78.14703, 9.92629], [78.14023, 9.93502], [78.13222, 9.94298]]}}, {"type": "Feature", "id": "STR-MW-052", "properties": {"watershed_id": "MW-052", "name": "Thirumangalam-Gundar Dry Sub-basin Main Channel", "stream_order": 3}, "geometry": {"type": "LineString", "coordinates": [[77.97434, 9.79587], [77.97728, 9.80672], [77.98297, 9.81609], [77.98728, 9.8262], [77.99246, 9.83585]]}}, {"type": "Feature", "id": "STR-MW-053", "properties": {"watershed_id": "MW-053", "name": "Sivaganga-Manamadurai Kanmai Cascade Main Channel", "stream_order": 2}, "geometry": {"type": "LineString", "coordinates": [[78.49246, 9.73991], [78.49335, 9.75393], [78.48659, 9.76551], [78.48145, 9.7776], [78.47293, 9.78862]]}}, {"type": "Feature", "id": "STR-MW-054", "properties": {"watershed_id": "MW-054", "name": "Paramakudi Arid Vaigai Lower Main Channel", "stream_order": 4}, "geometry": {"type": "LineString", "coordinates": [[78.55933, 9.547], [78.57236, 9.54357], [78.58473, 9.54847], [78.59768, 9.54588], [78.61049, 9.54525]]}}, {"type": "Feature", "id": "STR-MW-055", "properties": {"watershed_id": "MW-055", "name": "Ramanathapuram Periya Kanmai Coastal Main Channel", "stream_order": 5}, "geometry": {"type": "LineString", "coordinates": [[78.84654, 9.33903], [78.83752, 9.35083], [78.83363, 9.3645], [78.82607, 9.37683], [78.82762, 9.39248]]}}, {"type": "Feature", "id": "STR-MW-056", "properties": {"watershed_id": "MW-056", "name": "Agasthiyar-Papanasam Tamiraparani Upper Main Channel", "stream_order": 5}, "geometry": {"type": "LineString", "coordinates": [[77.3418, 8.65718], [77.34456, 8.67079], [77.34698, 8.68448], [77.3474, 8.6987], [77.35652, 8.71064]]}}, {"type": "Feature", "id": "STR-MW-057", "properties": {"watershed_id": "MW-057", "name": "Ambasamudram-Gadana Foothill Valley Main Channel", "stream_order": 2}, "geometry": {"type": "LineString", "coordinates": [[77.4361, 8.70094], [77.44533, 8.70828], [77.45403, 8.71638], [77.46567, 8.72028], [77.4723, 8.73135]]}}, {"type": "Feature", "id": "STR-MW-058", "properties": {"watershed_id": "MW-058", "name": "Tirunelveli-Palayamkottai Channel Zone Main Channel", "stream_order": 4}, "geometry": {"type": "LineString", "coordinates": [[77.69685, 8.71815], [77.70655, 8.72212], [77.71584, 8.72671], [77.72246, 8.7354], [77.73183, 8.73989]]}}, {"type": "Feature", "id": "STR-MW-059", "properties": {"watershed_id": "MW-059", "name": "Kovilpatti Rain-Fed Black Cotton Plain Main Channel", "stream_order": 4}, "geometry": {"type": "LineString", "coordinates": [[77.88494, 9.15545], [77.87686, 9.16659], [77.86445, 9.1746], [77.86048, 9.18873], [77.85059, 9.19856]]}}, {"type": "Feature", "id": "STR-MW-060", "properties": {"watershed_id": "MW-060", "name": "Srivaikuntam-Punnaiyakayal Estuarine Main Channel", "stream_order": 5}, "geometry": {"type": "LineString", "coordinates": [[77.99603, 8.62296], [78.01016, 8.6294], [78.0257, 8.62818], [78.04062, 8.63038], [78.05494, 8.63579]]}}]}